     2.100          NAVIGATION                              RINEX VERSION / TYPE
fic2rin                                 09/02/2011 00:06:21 PGM / RUN BY / DATE
                                                            END OF HEADER
32 11  9  1  4  0  0.0 -.320826657116D-03 -.682121026330D-11  .000000000000D+00
     .870000000000D+02  .920937500000D+02  .518985903560D-08 -.859949574683D+00
     .480748713017D-05  .122038451955D-01  .496581196785D-05  .515358530617D+04
     .360000000000D+06 -.670552253723D-07 -.148982831982D+01 -.180676579475D-06
     .953621392559D+00  .282031250000D+03 -.743548620973D+00 -.875750764249D-08
     .488234622646D-09  .100000000000D+01  .165100000000D+04  .000000000000D+00
     .240000000000D+01  .000000000000D+00 -.279396772385D-08  .870000000000D+02
     .352806000000D+06  .400000000000D+01
18 11  9  1  3 59 28.0  .155103392899D-03  .181898940355D-11  .000000000000D+00
     .600000000000D+01  .109500000000D+03  .542879755978D-08  .267837852567D+01
     .545755028725D-05  .127535725478D-01  .431388616562D-05  .515362827301D+04
     .359968000000D+06  .633299350739D-07 -.156281459016D+01 -.188127160072D-06
     .931723732548D+00  .280437500000D+03 -.221909969713D+01 -.852785521940D-08
     .325013538118D-09  .100000000000D+01  .165100000000D+04  .000000000000D+00
     .240000000000D+01  .000000000000D+00 -.107102096081D-07  .600000000000D+01
     .357096000000D+06  .400000000000D+01
16 11  9  1  3 59 44.0 -.195133965462D-03 -.227373675443D-11  .000000000000D+00
     .500000000000D+01  .386875000000D+02  .432768026525D-08  .210674622959D+01
     .209547579288D-05  .626331637613D-02  .678002834320D-05  .515386764908D+04
     .359984000000D+06  .745058059692D-08  .160097214136D+01  .540167093277D-07
     .977023045000D+00  .258906250000D+03 -.582311995975D-01 -.802819154926D-08
     .484305887570D-09  .100000000000D+01  .165100000000D+04  .000000000000D+00
     .240000000000D+01  .000000000000D+00 -.977888703346D-08  .500000000000D+01
     .357696000000D+06  .400000000000D+01
18 11  9  1  5 59 28.0  .155116897076D-03  .181898940355D-11  .000000000000D+00
     .700000000000D+01  .102062500000D+03  .550630078810D-08 -.255458628955D+01
     .518374145031D-05  .127545528812D-01  .425614416599D-05  .515362648773D+04
     .367168000000D+06  .216066837311D-06 -.156287660034D+01 -.968575477600D-07
     .931726172695D+00  .281656250000D+03 -.221910369382D+01 -.857107130524D-08
     .426803492364D-09  .100000000000D+01  .165100000000D+04  .000000000000D+00
     .240000000000D+01  .000000000000D+00 -.107102096081D-07  .700000000000D+01
     .360006000000D+06  .400000000000D+01
16 11  9  1  5 59 44.0 -.195150263608D-03 -.227373675443D-11  .000000000000D+00
     .600000000000D+01  .428125000000D+02  .436553898508D-08 -.312631760032D+01
     .219419598579D-05  .626360753085D-02  .673159956932D-05  .515386683655D+04
     .367184000000D+06 -.167638063431D-07  .160091434001D+01  .540167093277D-07
     .977026542837D+00  .260062500000D+03 -.582910387986D-01 -.803140596887D-08
     .488948938114D-09  .100000000000D+01  .165100000000D+04  .000000000000D+00
     .240000000000D+01  .000000000000D+00 -.977888703346D-08  .600000000000D+01
     .360006000000D+06  .400000000000D+01
 2 11  9  1  6  0  0.0  .353857874870D-03  .159161572810D-11  .000000000000D+00
     .270000000000D+02  .568750000000D+01  .486234539335D-08  .932261299351D+00
     .309199094772D-06  .104569403920D-01  .125132501125D-04  .515356772614D+04
     .367200000000D+06 -.428408384323D-07 -.264126486161D+01  .245869159698D-06
     .939261376989D+00  .129687500000D+03 -.293695911822D+01 -.812140971788D-08
    -.152506352502D-09  .100000000000D+01  .165100000000D+04  .000000000000D+00
     .240000000000D+01  .000000000000D+00 -.172294676304D-07  .270000000000D+02
     .360006000000D+06  .400000000000D+01
 3 11  9  1  6  0  0.0  .762365758419D-03  .500222085975D-11  .000000000000D+00
     .350000000000D+02 -.506562500000D+02  .568309386653D-08  .113842158723D+01
    -.273063778877D-05  .147451750236D-01  .544264912605D-05  .515366425323D+04
     .367200000000D+06 -.247731804848D-06  .248282651656D+01 -.372529029846D-08
     .929475108963D+00  .261906250000D+03  .112738824591D+01 -.895001566122D-08
    -.358586365133D-09  .100000000000D+01  .165100000000D+04  .000000000000D+00
     .240000000000D+01  .000000000000D+00 -.465661287308D-08  .350000000000D+02
     .360006000000D+06  .400000000000D+01
 4 11  9  1  6  0  0.0  .218187924474D-03  .111413100967D-10  .000000000000D+00
     .410000000000D+02  .104375000000D+02  .472698261209D-08 -.208980530176D+01
     .204890966415D-06  .974080315791D-02  .129844993353D-04  .515370594978D+04
     .367200000000D+06  .409781932831D-07 -.262403457005D+01 -.121071934700D-06
     .938335197702D+00  .111281250000D+03  .754868406042D+00 -.796640326124D-08
     .257153568621D-10  .100000000000D+01  .165100000000D+04  .000000000000D+00
     .240000000000D+01  .000000000000D+00 -.651925802231D-08  .410000000000D+02
     .360006000000D+06  .400000000000D+01
 5 11  9  1  6  0  0.0 -.212002079934D-03 -.534328137292D-11  .000000000000D+00
     .350000000000D+02  .100531250000D+03  .506628245957D-08  .302609853208D+01
     .533275306225D-05  .237781775650D-02  .585615634918D-05  .515374278831D+04
     .367200000000D+06 -.782310962677D-07 -.157895334296D+01 -.372529029846D-07
     .952924458386D+00  .263312500000D+03  .143977477377D+00 -.837463455143D-08
     .411802867528D-09  .100000000000D+01  .165100000000D+04  .000000000000D+00
     .240000000000D+01  .000000000000D+00 -.102445483208D-07  .350000000000D+02
     .360006000000D+06  .400000000000D+01
 6 11  9  1  6  0  0.0 -.817761756480D-04  .954969436862D-11  .000000000000D+00
     .470000000000D+02 -.582187500000D+02  .533450791795D-08  .313398998683D+01
    -.296346843243D-05  .668409990612D-02  .548176467419D-05  .515370305824D+04
     .367200000000D+06 -.279396772385D-07  .255725772718D+01  .106170773506D-06
     .936595147347D+00  .257312500000D+03 -.696014689451D+00 -.849428239239D-08
    -.297512392585D-09  .100000000000D+01  .165100000000D+04  .000000000000D+00
     .340000000000D+01  .000000000000D+00 -.465661287308D-08  .470000000000D+02
     .360006000000D+06  .400000000000D+01
 7 11  9  1  6  0  0.0  .246432609856D-04  .181898940355D-11  .000000000000D+00
     .620000000000D+02 -.588125000000D+02  .384658879729D-08 -.516750677106D+00
    -.320747494698D-05  .493319006637D-02  .125095248222D-04  .515364741325D+04
     .367200000000D+06  .141561031342D-06  .527678348927D+00 -.428408384323D-07
     .975252802942D+00  .148062500000D+03 -.309496270889D+01 -.775210862073D-08
    -.146791828755D-09  .100000000000D+01  .165100000000D+04  .000000000000D+00
     .240000000000D+01  .000000000000D+00 -.107102096081D-07  .620000000000D+02
     .360006000000D+06  .400000000000D+01
 8 11  9  1  6  0  0.0  .904733315110D-05  .113686837722D-12  .000000000000D+00
     .750000000000D+02 -.415937500000D+02  .335871133238D-08 -.100157860333D+01
    -.232085585594D-05  .120331653161D-01  .125914812088D-04  .515375742149D+04
     .367200000000D+06  .141561031342D-06  .605199674093D+00 -.264495611191D-06
     .997045946234D+00  .156531250000D+03 -.304505529958D+01 -.743816697237D-08
     .357157734196D-10  .100000000000D+01  .165100000000D+04  .000000000000D+00
     .340000000000D+01  .000000000000D+00 -.419095158577D-08  .750000000000D+02
     .360006000000D+06  .400000000000D+01
 9 11  9  1  6  0  0.0  .102800317109D-03  .238742359215D-11  .000000000000D+00
     .620000000000D+02 -.279062500000D+02  .375444210187D-08 -.122912789169D+01
    -.141747295856D-05  .173094312195D-01  .117514282465D-04  .515366993332D+04
     .367200000000D+06 -.257045030594D-06  .499968689474D+00  .318512320518D-06
     .984134235655D+00  .166937500000D+03  .159750995701D+01 -.786139888739D-08
    -.123933733766D-09  .100000000000D+01  .165100000000D+04  .000000000000D+00
     .240000000000D+01  .000000000000D+00 -.558793544769D-08  .620000000000D+02
     .360006000000D+06  .400000000000D+01
10 11  9  1  6  0  0.0 -.117151066661D-04 -.113686837722D-11  .000000000000D+00
     .650000000000D+02  .104937500000D+03  .511878464650D-08 -.303275142707D+01
     .525079667568D-05  .103687453084D-01  .569596886635D-05  .515363014793D+04
     .367200000000D+06 -.745058059692D-07 -.155581338169D+01 -.244006514549D-06
     .947847132015D+00  .264000000000D+03  .704304291341D+00 -.836534845034D-08
     .405731186047D-09  .100000000000D+01  .165100000000D+04  .000000000000D+00
     .340000000000D+01  .000000000000D+00 -.232830643654D-08  .650000000000D+02
     .360006000000D+06  .400000000000D+01
11 11  9  1  6  0  0.0 -.181958079338D-03 -.329691829393D-11  .000000000000D+00
     .260000000000D+02 -.191875000000D+02  .612311219506D-08 -.354707678496D+00
    -.931322574615D-06  .121906106360D-01  .118445605040D-04  .515367287636D+04
     .367200000000D+06  .335276126862D-07 -.288342761463D+01  .135973095894D-06
     .888416066027D+00  .115375000000D+03  .961215496861D+00 -.894822987255D-08
    -.292869342041D-09  .100000000000D+01  .165100000000D+04  .000000000000D+00
     .240000000000D+01  .000000000000D+00 -.116415321827D-07  .260000000000D+02
     .360006000000D+06  .400000000000D+01
12 11  9  1  6  0  0.0  .195153988898D-04  .238742359215D-11  .000000000000D+00
     .960000000000D+02  .401562500000D+02  .432946605392D-08 -.730640512099D+00
     .208802521229D-05  .358445721213D-02  .677257776260D-05  .515367449951D+04
     .367200000000D+06  .298023223877D-07  .158297344476D+01 -.987201929092D-07
     .976067687811D+00  .259843750000D+03 -.765283519645D-01 -.809283709915D-08
     .402873924173D-09  .100000000000D+01  .165100000000D+04  .000000000000D+00
     .240000000000D+01  .000000000000D+00 -.121071934700D-07  .960000000000D+02
     .360006000000D+06  .400000000000D+01
